start=new Date('2022-12-02T00:00:00.000Z').valueOf();
sats=[{"BSTAR":"0.00010170000000","TIME_SYSTEM":"UTC","REF_FRAME":"TEME","MEAN_MOTION_DOT":"0.00001233","DECAY_DATE":null,"EPHEMERIS_TYPE":"0","TLE_LINE2":"2 44723  53.0533 146.4798 0001870  71.7608 288.3585 15.06400465168796","NORAD_CAT_ID":"44723","EPOCH":"2022-12-01T17:41:22.426368","SITE":"AFETR","PERIAPSIS":"545.917","ARG_OF_PERICENTER":"71.7608","FILE":"3678231","PERIOD":"95.592","OBJECT_NAME":"STARLINK-1017","REV_AT_EPOCH":"16879","CLASSIFICATION_TYPE":"U","INCLINATION":"53.0533","MEAN_ELEMENT_THEORY":"SGP4","SEMIMAJOR_AXIS":"6925.347","COUNTRY_CODE":"US","MEAN_MOTION_DDOT":"0.0000000000000","ELEMENT_SET_NO":"999","RCS_SIZE":"LARGE","TLE_LINE1":"1 44723U 19074L   22335.73706512  .00001233  00000-0  10170-3 0  9998","MEAN_MOTION":"15.06400465","MEAN_ANOMALY":"288.3585","OBJECT_TYPE":"PAYLOAD","OBJECT_ID":"2019-074L","CENTER_NAME":"EARTH","ECCENTRICITY":"0.00018700","APOAPSIS":"548.507","RA_OF_ASC_NODE":"146.4798","LAUNCH_DATE":"2019-11-11","GP_ID":"219302909"},{"GP_ID":"219301167","RA_OF_ASC_NODE":"146.3538","APOAPSIS":"548.483","LAUNCH_DATE":"2019-11-11","CENTER_NAME":"EARTH","ECCENTRICITY":"0.00018610","OBJECT_TYPE":"PAYLOAD","OBJECT_ID":"2019-074M","MEAN_MOTION":"15.06406333","MEAN_ANOMALY":"287.6597","TLE_LINE1":"1 44724U 19074M   22335.76654051  .00001686  00000-0  13203-3 0  9994","RCS_SIZE":"LARGE","MEAN_MOTION_DDOT":"0.0000000000000","COUNTRY_CODE":"US","ELEMENT_SET_NO":"999","SEMIMAJOR_AXIS":"6925.329","MEAN_ELEMENT_THEORY":"SGP4","INCLINATION":"53.0525","REV_AT_EPOCH":"16879","FILE":"3678231","PERIOD":"95.592","OBJECT_NAME":"STARLINK-1019","CLASSIFICATION_TYPE":"U","ARG_OF_PERICENTER":"72.4595","PERIAPSIS":"545.905","SITE":"AFETR","NORAD_CAT_ID":"44724","EPOCH":"2022-12-01T18:23:49.100064","TLE_LINE2":"2 44724  53.0525 146.3538 0001861  72.4595 287.6597 15.06406333168797","DECAY_DATE":null,"EPHEMERIS_TYPE":"0","MEAN_MOTION_DOT":"0.00001686","TIME_SYSTEM":"UTC","REF_FRAME":"TEME","BSTAR":"0.00013203000000"},{"ARG_OF_PERICENTER":"84.2011","PERIAPSIS":"545.959","SITE":"AFETR","NORAD_CAT_ID":"44725","EPOCH":"2022-12-01T20:07:21.102816","TLE_LINE2":"2 44725  53.0553 166.0357 0001918  84.2011 275.9196 15.06376070168524","INCLINATION":"53.0553","CLASSIFICATION_TYPE":"U","PERIOD":"95.594","FILE":"3678231","OBJECT_NAME":"STARLINK-1020","REV_AT_EPOCH":"16852","BSTAR":"0.00022401000000","DECAY_DATE":null,"EPHEMERIS_TYPE":"0","MEAN_MOTION_DOT":"0.00003054","REF_FRAME":"TEME","TIME_SYSTEM":"UTC","OBJECT_ID":"2019-074N","OBJECT_TYPE":"PAYLOAD","MEAN_MOTION":"15.06376070","MEAN_ANOMALY":"275.9196","GP_ID":"219301415","LAUNCH_DATE":"2019-11-11","APOAPSIS":"548.615","RA_OF_ASC_NODE":"166.0357","ECCENTRICITY":"0.00019180","CENTER_NAME":"EARTH","SEMIMAJOR_AXIS":"6925.422","MEAN_ELEMENT_THEORY":"SGP4","TLE_LINE1":"1 44725U 19074N   22335.83843869  .00003054  00000-0  22401-3 0  9991","RCS_SIZE":"LARGE","ELEMENT_SET_NO":"999","COUNTRY_CODE":"US","MEAN_MOTION_DDOT":"0.0000000000000"},{"OBJECT_TYPE":"PAYLOAD","OBJECT_ID":"2019-074P","MEAN_ANOMALY":"284.8233","MEAN_MOTION":"15.06395327","GP_ID":"219302164","APOAPSIS":"548.432","RA_OF_ASC_NODE":"146.3548","LAUNCH_DATE":"2019-11-11","CENTER_NAME":"EARTH","ECCENTRICITY":"0.00017380","SEMIMAJOR_AXIS":"6925.363","MEAN_ELEMENT_THEORY":"SGP4","TLE_LINE1":"1 44726U 19074P   22335.76286526 -.00000410  00000-0 -86270-5 0  9996","RCS_SIZE":"LARGE","MEAN_MOTION_DDOT":"0.0000000000000","COUNTRY_CODE":"US","ELEMENT_SET_NO":"999","PERIAPSIS":"546.024","ARG_OF_PERICENTER":"75.2948","SITE":"AFETR","NORAD_CAT_ID":"44726","EPOCH":"2022-12-01T18:18:31.558464","TLE_LINE2":"2 44726  53.0538 146.3548 0001738  75.2948 284.8233 15.06395327168796","INCLINATION":"53.0538","REV_AT_EPOCH":"16879","FILE":"3678231","PERIOD":"95.592","OBJECT_NAME":"STARLINK-1021","CLASSIFICATION_TYPE":"U","BSTAR":"-0.00000862700000","EPHEMERIS_TYPE":"0","DECAY_DATE":null,"MEAN_MOTION_DOT":"-0.00000410","TIME_SYSTEM":"UTC","REF_FRAME":"TEME"},{"TLE_LINE1":"1 44727U 19074Q   22335.73242169  .00001873  00000-0  14458-3 0  9998","RCS_SIZE":"LARGE","MEAN_MOTION_DDOT":"0.0000000000000","COUNTRY_CODE":"US","ELEMENT_SET_NO":"999","SEMIMAJOR_AXIS":"6925.327","MEAN_ELEMENT_THEORY":"SGP4","GP_ID":"219302410","RA_OF_ASC_NODE":"186.5109","APOAPSIS":"548.294","LAUNCH_DATE":"2019-11-11","ECCENTRICITY":"0.00015910","CENTER_NAME":"EARTH","OBJECT_TYPE":"PAYLOAD","OBJECT_ID":"2019-074Q","MEAN_ANOMALY":"290.8508","MEAN_MOTION":"15.06406891","DECAY_DATE":null,"EPHEMERIS_TYPE":"0","MEAN_MOTION_DOT":"0.00001873","TIME_SYSTEM":"UTC","REF_FRAME":"TEME","BSTAR":"0.00014458000000","INCLINATION":"53.0535","FILE":"3678231","PERIOD":"95.592","REV_AT_EPOCH":"16824","OBJECT_NAME":"STARLINK-1022","CLASSIFICATION_TYPE":"U","ARG_OF_PERICENTER":"69.2651","PERIAPSIS":"546.091","SITE":"AFETR","NORAD_CAT_ID":"44727","EPOCH":"2022-12-01T17:34:41.234016","TLE_LINE2":"2 44727  53.0535 186.5109 0001591  69.2651 290.8508 15.06406891168245"},{"COUNTRY_CODE":"US","MEAN_MOTION_DDOT":"0.0000000000000","ELEMENT_SET_NO":"999","RCS_SIZE":"LARGE","TLE_LINE1":"1 44729U 19074S   22335.73506098  .00006450  00000-0  30542-3 0  9992","MEAN_ELEMENT_THEORY":"SGP4","SEMIMAJOR_AXIS":"6882.329","ECCENTRICITY":"0.00033050","CENTER_NAME":"EARTH","APOAPSIS":"506.469","RA_OF_ASC_NODE":"143.1940","LAUNCH_DATE":"2019-11-11","GP_ID":"219301666","MEAN_ANOMALY":"189.9320","MEAN_MOTION":"15.20546187","OBJECT_TYPE":"PAYLOAD","OBJECT_ID":"2019-074S","TIME_SYSTEM":"UTC","REF_FRAME":"TEME","MEAN_MOTION_DOT":"0.00006450","EPHEMERIS_TYPE":"0","DECAY_DATE":null,"BSTAR":"0.00030542000000","PERIOD":"94.703","FILE":"3678231","REV_AT_EPOCH":"16879","OBJECT_NAME":"STARLINK-1024","CLASSIFICATION_TYPE":"U","INCLINATION":"52.9985","TLE_LINE2":"2 44729  52.9985 143.1940 0003305 170.1739 189.9320 15.20546187168799","NORAD_CAT_ID":"44729","EPOCH":"2022-12-01T17:38:29.268672","SITE":"AFETR","PERIAPSIS":"501.919","ARG_OF_PERICENTER":"170.1739"},{"DECAY_DATE":null,"EPHEMERIS_TYPE":"0","MEAN_MOTION_DOT":"0.00001413","TIME_SYSTEM":"UTC","REF_FRAME":"TEME","BSTAR":"0.00011376000000","INCLINATION":"53.0531","OBJECT_NAME":"STARLINK-1026","FILE":"3678231","PERIOD":"95.592","REV_AT_EPOCH":"16879","CLASSIFICATION_TYPE":"U","ARG_OF_PERICENTER":"63.6939","PERIAPSIS":"545.788","SITE":"AFETR","NORAD_CAT_ID":"44731","EPOCH":"2022-12-01T18:34:26.929920","TLE_LINE2":"2 44731  53.0531 146.3238 0002048  63.6939 296.4261 15.06402250168791","TLE_LINE1":"1 44731U 19074U   22335.77392280  .00001413  00000-0  11376-3 0  9993","RCS_SIZE":"LARGE","MEAN_MOTION_DDOT":"0.0000000000000","COUNTRY_CODE":"US","ELEMENT_SET_NO":"999","SEMIMAJOR_AXIS":"6925.342","MEAN_ELEMENT_THEORY":"SGP4","GP_ID":"219301913","RA_OF_ASC_NODE":"146.3238","APOAPSIS":"548.625","LAUNCH_DATE":"2019-11-11","CENTER_NAME":"EARTH","ECCENTRICITY":"0.00020480","OBJECT_TYPE":"PAYLOAD","OBJECT_ID":"2019-074U","MEAN_MOTION":"15.06402250","MEAN_ANOMALY":"296.4261"},{"ELEMENT_SET_NO":"999","COUNTRY_CODE":"US","MEAN_MOTION_DDOT":"0.0000000000000","RCS_SIZE":"LARGE","TLE_LINE1":"1 44732U 19074V   22335.82737384 -.00000060  00000-0  14860-4 0  9998","MEAN_ELEMENT_THEORY":"SGP4","SEMIMAJOR_AXIS":"6925.359","CENTER_NAME":"EARTH","ECCENTRICITY":"0.00018480","LAUNCH_DATE":"2019-11-11","APOAPSIS":"548.504","RA_OF_ASC_NODE":"166.0803","GP_ID":"219302664","MEAN_MOTION":"15.06396656","MEAN_ANOMALY":"293.2040","OBJECT_ID":"2019-074V","OBJECT_TYPE":"PAYLOAD","REF_FRAME":"TEME","TIME_SYSTEM":"UTC","MEAN_MOTION_DOT":"-0.00000060","DECAY_DATE":null,"EPHEMERIS_TYPE":"0","BSTAR":"0.00001486000000","CLASSIFICATION_TYPE":"U","REV_AT_EPOCH":"16852","FILE":"3678231","PERIOD":"95.592","OBJECT_NAME":"STARLINK-1027","INCLINATION":"53.0549","TLE_LINE2":"2 44732  53.0549 166.0803 0001848  66.9144 293.2040 15.06396656168522","NORAD_CAT_ID":"44732","EPOCH":"2022-12-01T19:51:25.099776","SITE":"AFETR","ARG_OF_PERICENTER":"66.9144","PERIAPSIS":"545.944"},{"CLASSIFICATION_TYPE":"U","FILE":"3678231","OBJECT_NAME":"STARLINK-1028","PERIOD":"95.592","REV_AT_EPOCH":"16879","INCLINATION":"53.0537","EPOCH":"2022-12-01T18:13:13.320480","NORAD_CAT_ID":"44733","TLE_LINE2":"2 44733  53.0537 146.3724 0001416  93.6665 266.4485 15.06397241168794","PERIAPSIS":"546.241","ARG_OF_PERICENTER":"93.6665","SITE":"AFETR","REF_FRAME":"TEME","TIME_SYSTEM":"UTC","DECAY_DATE":null,"EPHEMERIS_TYPE":"0","MEAN_MOTION_DOT":"0.00001566","BSTAR":"0.00012404000000","LAUNCH_DATE":"2019-11-11","RA_OF_ASC_NODE":"146.3724","APOAPSIS":"548.203","ECCENTRICITY":"0.00014160","CENTER_NAME":"EARTH","GP_ID":"219302910","MEAN_MOTION":"15.06397241","MEAN_ANOMALY":"266.4485","OBJECT_ID":"2019-074W","OBJECT_TYPE":"PAYLOAD","ELEMENT_SET_NO":"999","MEAN_MOTION_DDOT":"0.0000000000000","COUNTRY_CODE":"US","TLE_LINE1":"1 44733U 19074W   22335.75918195  .00001566  00000-0  12404-3 0  9994","RCS_SIZE":"LARGE","MEAN_ELEMENT_THEORY":"SGP4","SEMIMAJOR_AXIS":"6925.357"},{"BSTAR":"0.00028120000000","TIME_SYSTEM":"UTC","REF_FRAME":"TEME","DECAY_DATE":null,"EPHEMERIS_TYPE":"0","MEAN_MOTION_DOT":"0.00003910","NORAD_CAT_ID":"44734","EPOCH":"2022-12-01T18:34:26.625792","TLE_LINE2":"2 44734  53.0547  66.3179 0001471  57.7219 302.3913 15.06402462169898","ARG_OF_PERICENTER":"57.7219","PERIAPSIS":"546.187","SITE":"AFETR","OBJECT_NAME":"STARLINK-1029","FILE":"3678231","PERIOD":"95.592","REV_AT_EPOCH":"16989","CLASSIFICATION_TYPE":"U","INCLINATION":"53.0547","MEAN_ELEMENT_THEORY":"SGP4","SEMIMAJOR_AXIS":"6925.341","MEAN_MOTION_DDOT":"0.0000000000000","COUNTRY_CODE":"US","ELEMENT_SET_NO":"999","TLE_LINE1":"1 44734U 19074X   22335.77391928  .00003910  00000-0  28120-3 0  9993","RCS_SIZE":"LARGE","MEAN_MOTION":"15.06402462","MEAN_ANOMALY":"302.3913","OBJECT_TYPE":"PAYLOAD","OBJECT_ID":"2019-074X","APOAPSIS":"548.225","RA_OF_ASC_NODE":"66.3179","LAUNCH_DATE":"2019-11-11","ECCENTRICITY":"0.00014710","CENTER_NAME":"EARTH","GP_ID":"219301168"}];
